{"type": "FeatureCollection", "features": [ {"type": "Feature", "properties": {"norad_id": 31989, "name": "FENGYUN 1C DEB", "group": "fengyun-1c-debris", "lat": -77.90178993150349, "lon": 173.8905907190826, "alt_km": 869.0399602947655, "timestamp": "2025-12-07T22:37:43.365322+00:00", "meta": {"OBJECT_NAME": "FENGYUN 1C DEB", "OBJECT_ID": "1999-025CPS", "EPOCH": "2025-12-05T23:26:33.079200", "MEAN_MOTION": 13.93571653, "ECCENTRICITY": 0.01152626, "INCLINATION": 99.2136, "RA_OF_ASC_NODE": 41.1517, "ARG_OF_PERICENTER": 317.6605, "MEAN_ANOMALY": 167.1839, "EPHEMERIS_TYPE": 0, "CLASSIFICATION_TYPE": "U", "NORAD_CAT_ID": 31989, "ELEMENT_SET_NO": 999, "REV_AT_EPOCH": 93623, "BSTAR": 0.00092028893, "MEAN_MOTION_DOT": 1.23e-05, "MEAN_MOTION_DDOT": 0}, "tle": {"line1": "1 31989U 99025CPS 25339.97677175  .00001230  00000+0  92029-3 0  9996", "line2": "2 31989  99.2136  41.1517 0115262 317.6605 167.1839 13.93571653936237"}}, "geometry": {"type": "Point", "coordinates": [173.8905907190826, -77.90178993150349]}}, {"type": "Feature", "properties": {"norad_id": 31990, "name": "FENGYUN 1C DEB", "group": "fengyun-1c-debris", "lat": -80.82692578764495, "lon": 92.55324112302213, "alt_km": 993.8577642985256, "timestamp": "2025-12-07T22:37:43.365332+00:00", "meta": {"OBJECT_NAME": "FENGYUN 1C DEB", "OBJECT_ID": "1999-025CPT", "EPOCH": "2025-12-06T21:09:55.179360", "MEAN_MOTION": 13.57198306, "ECCENTRICITY": 0.02599871, "INCLINATION": 99.161, "RA_OF_ASC_NODE": 3.7673, "ARG_OF_PERICENTER": 199.5473, "MEAN_ANOMALY": 286.8488, "EPHEMERIS_TYPE": 0, "CLASSIFICATION_TYPE": "U", "NORAD_CAT_ID": 31990, "ELEMENT_SET_NO": 999, "REV_AT_EPOCH": 62692, "BSTAR": 0.00043183639, "MEAN_MOTION_DOT": 3.43e-06, "MEAN_MOTION_DDOT": 0}, "tle": {"line1": "1 31990U 99025CPT 25340.88188865  .00000343  00000+0  43184-3 0  9995", "line2": "2 31990  99.1610   3.7673 0259987 199.5473 286.8488 13.57198306626926"}}, "geometry": {"type": "Point", "coordinates": [92.55324112302213, -80.82692578764495]}}, {"type": "Feature", "properties": {"norad_id": 31991, "name": "FENGYUN 1C DEB", "group": "fengyun-1c-debris", "lat": -37.3035369243652, "lon": -17.53856520110479, "alt_km": 1197.5878678506997, "timestamp": "2025-12-07T22:37:43.365343+00:00", "meta": {"OBJECT_NAME": "FENGYUN 1C DEB", "OBJECT_ID": "1999-025CPU", "EPOCH": "2025-12-03T06:27:10.152000", "MEAN_MOTION": 13.6127431, "ECCENTRICITY": 0.0244591, "INCLINATION": 100.4871, "RA_OF_ASC_NODE": 165.5577, "ARG_OF_PERICENTER": 76.633, "MEAN_ANOMALY": 286.1951, "EPHEMERIS_TYPE": 0, "CLASSIFICATION_TYPE": "U", "NORAD_CAT_ID": 31991, "ELEMENT_SET_NO": 999, "REV_AT_EPOCH": 61958, "BSTAR": 0.00020994, "MEAN_MOTION_DOT": 1.46e-06, "MEAN_MOTION_DDOT": 0}, "tle": {"line1": "1 31991U 99025CPU 25337.26886750  .00000146  00000+0  20994-3 0  9997", "line2": "2 31991 100.4871 165.5577 0244591  76.6330 286.1951 13.61274310619581"}}, "geometry": {"type": "Point", "coordinates": [-17.53856520110479, -37.3035369243652]}}, {"type": "Feature", "properties": {"norad_id": 31992, "name": "FENGYUN 1C DEB", "group": "fengyun-1c-debris", "lat": 41.359577038216884, "lon": -65.79035074804291, "alt_km": 760.4198961561433, "timestamp": "2025-12-07T22:37:43.365354+00:00", "meta": {"OBJECT_NAME": "FENGYUN 1C DEB", "OBJECT_ID": "1999-025CPV", "EPOCH": "2025-11-28T04:18:18.013824", "MEAN_MOTION": 13.22945767, "ECCENTRICITY": 0.05423475, "INCLINATION": 99.1642, "RA_OF_ASC_NODE": 293.7613, "ARG_OF_PERICENTER": 64.8199, "MEAN_ANOMALY": 300.815, "EPHEMERIS_TYPE": 0, "CLASSIFICATION_TYPE": "U", "NORAD_CAT_ID": 31992, "ELEMENT_SET_NO": 999, "REV_AT_EPOCH": 53682, "BSTAR": 0.0012217074, "MEAN_MOTION_DOT": 1.091e-05, "MEAN_MOTION_DDOT": 0}, "tle": {"line1": "1 31992U 99025CPV 25332.17937516  .00001091  00000+0  12217-2 0  9998", "line2": "2 31992  99.1642 293.7613 0542347  64.8199 300.8150 13.22945767536827"}}, "geometry": {"type": "Point", "coordinates": [-65.79035074804291, 41.359577038216884]}}, {"type": "Feature", "properties": {"norad_id": 31993, "name": "FENGYUN 1C DEB", "group": "fengyun-1c-debris", "lat": -1.975936089717978, "lon": -44.968472798921056, "alt_km": 1428.0623702661578, "timestamp": "2025-12-07T22:37:43.365365+00:00", "meta": {"OBJECT_NAME": "FENGYUN 1C DEB", "OBJECT_ID": "1999-025CPW", "EPOCH": "2025-12-06T15:53:12.471360", "MEAN_MOTION": 13.27435275, "ECCENTRICITY": 0.04213552, "INCLINATION": 99.2419, "RA_OF_ASC_NODE": 313.5632, "ARG_OF_PERICENTER": 150.2517, "MEAN_ANOMALY": 212.3297, "EPHEMERIS_TYPE": 0, "CLASSIFICATION_TYPE": "U", "NORAD_CAT_ID": 31993, "ELEMENT_SET_NO": 999, "REV_AT_EPOCH": 88862, "BSTAR": 0.0018283472, "MEAN_MOTION_DOT": 1.296e-05, "MEAN_MOTION_DDOT": 0}, "tle": {"line1": "1 31993U 99025CPW 25340.66194990  .00001296  00000+0  18283-2 0  9999", "line2": "2 31993  99.2419 313.5632 0421355 150.2517 212.3297 13.27435275888622"}}, "geometry": {"type": "Point", "coordinates": [-44.968472798921056, -1.975936089717978]}}, {"type": "Feature", "properties": {"norad_id": 31994, "name": "FENGYUN 1C DEB", "group": "fengyun-1c-debris", "lat": 77.682315092715, "lon": -160.05891861295228, "alt_km": 841.569051244066, "timestamp": "2025-12-07T22:37:43.365375+00:00", "meta": {"OBJECT_NAME": "FENGYUN 1C DEB", "OBJECT_ID": "1999-025CPX", "EPOCH": "2025-12-06T06:34:51.862368", "MEAN_MOTION": 13.95753387, "ECCENTRICITY": 0.01620138, "INCLINATION": 98.5386, "RA_OF_ASC_NODE": 334.9207, "ARG_OF_PERICENTER": 163.9852, "MEAN_ANOMALY": 196.652, "EPHEMERIS_TYPE": 0, "CLASSIFICATION_TYPE": "U", "NORAD_CAT_ID": 31994, "ELEMENT_SET_NO": 999, "REV_AT_EPOCH": 56706, "BSTAR": 0.00040227301, "MEAN_MOTION_DOT": 5.74e-06, "MEAN_MOTION_DDOT": 0}, "tle": {"line1": "1 31994U 99025CPX 25340.27421137  .00000574  00000+0  40227-3 0  9995", "line2": "2 31994  98.5386 334.9207 0162013 163.9852 196.6520 13.95753387567066"}}, "geometry": {"type": "Point", "coordinates": [-160.05891861295228, 77.682315092715]}}, {"type": "Feature", "properties": {"norad_id": 31997, "name": "FENGYUN 1C DEB", "group": "fengyun-1c-debris", "lat": -44.87751359918078, "lon": 36.88178310277596, "alt_km": 851.0793558815094, "timestamp": "2025-12-07T22:37:43.365385+00:00", "meta": {"OBJECT_NAME": "FENGYUN 1C DEB", "OBJECT_ID": "1999-025CQA", "EPOCH": "2025-12-06T22:08:32.671968", "MEAN_MOTION": 13.60637396, "ECCENTRICITY": 0.02894858, "INCLINATION": 102.5098, "RA_OF_ASC_NODE": 22.8081, "ARG_OF_PERICENTER": 286.9156, "MEAN_ANOMALY": 70.0427, "EPHEMERIS_TYPE": 0, "CLASSIFICATION_TYPE": "U", "NORAD_CAT_ID": 31997, "ELEMENT_SET_NO": 999, "REV_AT_EPOCH": 61604, "BSTAR": 0.0033866517, "MEAN_MOTION_DOT": 3.304e-05, "MEAN_MOTION_DDOT": 0}, "tle": {"line1": "1 31997U 99025CQA 25340.92260037  .00003304  00000+0  33867-2 0  9995", "line2": "2 31997 102.5098  22.8081 0289485 286.9156  70.0427 13.60637396616041"}}, "geometry": {"type": "Point", "coordinates": [36.88178310277596, -44.87751359918078]}}, {"type": "Feature", "properties": {"norad_id": 32086, "name": "FENGYUN 1C DEB", "group": "fengyun-1c-debris", "lat": 55.18502700186887, "lon": 23.450036230017623, "alt_km": 997.9308808642745, "timestamp": "2025-12-07T22:37:43.365396+00:00", "meta": {"OBJECT_NAME": "FENGYUN 1C DEB", "OBJECT_ID": "1999-025CQC", "EPOCH": "2025-12-06T09:30:26.667936", "MEAN_MOTION": 13.68848486, "ECCENTRICITY": 0.03008584, "INCLINATION": 99.2701, "RA_OF_ASC_NODE": 35.544, "ARG_OF_PERICENTER": 151.9949, "MEAN_ANOMALY": 209.7757, "EPHEMERIS_TYPE": 0, "CLASSIFICATION_TYPE": "U", "NORAD_CAT_ID": 32086, "ELEMENT_SET_NO": 999, "REV_AT_EPOCH": 61694, "BSTAR": 0.0037730503, "MEAN_MOTION_DOT": 4.423e-05, "MEAN_MOTION_DDOT": 0}, "tle": {"line1": "1 32086U 99025CQC 25340.39614199  .00004423  00000+0  37731-2 0  9995", "line2": "2 32086  99.2701  35.5440 0300858 151.9949 209.7757 13.68848486616941"}}, "geometry": {"type": "Point", "coordinates": [23.450036230017623, 55.18502700186887]}}, {"type": "Feature", "properties": {"norad_id": 32088, "name": "FENGYUN 1C DEB", "group": "fengyun-1c-debris", "lat": -32.25223350912566, "lon": 19.02171756813697, "alt_km": 1481.1394467868731, "timestamp": "2025-12-07T22:37:43.365407+00:00", "meta": {"OBJECT_NAME": "FENGYUN 1C DEB", "OBJECT_ID": "1999-025CQE", "EPOCH": "2025-12-06T09:18:40.455072", "MEAN_MOTION": 13.25142196, "ECCENTRICITY": 0.04613178, "INCLINATION": 102.4006, "RA_OF_ASC_NODE": 205.1466, "ARG_OF_PERICENTER": 10.58, "MEAN_ANOMALY": 350.463, "EPHEMERIS_TYPE": 0, "CLASSIFICATION_TYPE": "U", "NORAD_CAT_ID": 32088, "ELEMENT_SET_NO": 999, "REV_AT_EPOCH": 59760, "BSTAR": 0.0056997222, "MEAN_MOTION_DOT": 4.329e-05, "MEAN_MOTION_DDOT": 0}, "tle": {"line1": "1 32088U 99025CQE 25340.38796823  .00004329  00000+0  56997-2 0  9991", "line2": "2 32088 102.4006 205.1466 0461317  10.5800 350.4630 13.25142196597608"}}, "geometry": {"type": "Point", "coordinates": [19.02171756813697, -32.25223350912566]}}, {"type": "Feature", "properties": {"norad_id": 32089, "name": "FENGYUN 1C DEB", "group": "fengyun-1c-debris", "lat": -40.34972365123464, "lon": 160.23453739412955, "alt_km": 841.4666158509199, "timestamp": "2025-12-07T22:37:43.365417+00:00", "meta": {"OBJECT_NAME": "FENGYUN 1C DEB", "OBJECT_ID": "1999-025CQF", "EPOCH": "2025-12-07T06:18:49.554720", "MEAN_MOTION": 14.14051186, "ECCENTRICITY": 0.01122042, "INCLINATION": 98.6543, "RA_OF_ASC_NODE": 347.0104, "ARG_OF_PERICENTER": 139.5963, "MEAN_ANOMALY": 221.3612, "EPHEMERIS_TYPE": 0, "CLASSIFICATION_TYPE": "U", "NORAD_CAT_ID": 32089, "ELEMENT_SET_NO": 999, "REV_AT_EPOCH": 63138, "BSTAR": 0.00086316915, "MEAN_MOTION_DOT": 1.702e-05, "MEAN_MOTION_DDOT": 0}, "tle": {"line1": "1 32089U 99025CQF 25341.26307355  .00001702  00000+0  86317-3 0  9990", "line2": "2 32089  98.6543 347.0104 0112204 139.5963 221.3612 14.14051186631383"}}, "geometry": {"type": "Point", "coordinates": [160.23453739412955, -40.34972365123464]}}]}